start=new Date('2023-01-16T00:00:00.000Z').valueOf();
sats=[{"BSTAR":"0.00044430000000","MEAN_ELEMENT_THEORY":"SGP4","CENTER_NAME":"EARTH","RA_OF_ASC_NODE":"276.2375","TLE_LINE1":"1 49729U 21115F   23015.90208002  .00006791  00000-0  44430-3 0  9994","SITE":"AFETR","REV_AT_EPOCH":"6196","MEAN_ANOMALY":"312.9747","NORAD_CAT_ID":"49729","RCS_SIZE":"LARGE","EPOCH":"2023-01-15T21:38:59.713728","APOAPSIS":"540.850","OBJECT_ID":"2021-115F","FILE":"3748322","GP_ID":"223149048","TIME_SYSTEM":"UTC","INCLINATION":"53.2158","PERIAPSIS":"538.619","REF_FRAME":"TEME","COUNTRY_CODE":"US","PERIOD":"95.437","SEMIMAJOR_AXIS":"6917.870","MEAN_MOTION":"15.08843557","ELEMENT_SET_NO":"999","MEAN_MOTION_DDOT":"0.0000000000000","OBJECT_TYPE":"PAYLOAD","ECCENTRICITY":"0.00016120","OBJECT_NAME":"STARLINK-3251","LAUNCH_DATE":"2021-12-02","DECAY_DATE":null,"ARG_OF_PERICENTER":"47.1381","MEAN_MOTION_DOT":"0.00006791","TLE_LINE2":"2 49729  53.2158 276.2375 0001612  47.1381 312.9747 15.08843557 61964","CLASSIFICATION_TYPE":"U","EPHEMERIS_TYPE":"0"},{"REF_FRAME":"TEME","SEMIMAJOR_AXIS":"6917.864","COUNTRY_CODE":"US","PERIOD":"95.437","ELEMENT_SET_NO":"999","MEAN_MOTION":"15.08845235","ECCENTRICITY":"0.00025530","OBJECT_TYPE":"PAYLOAD","MEAN_MOTION_DDOT":"0.0000000000000","LAUNCH_DATE":"2021-12-02","OBJECT_NAME":"STARLINK-3249","MEAN_MOTION_DOT":"0.00006670","ARG_OF_PERICENTER":"46.5523","DECAY_DATE":null,"TLE_LINE2":"2 49730  53.2154 276.1961 0002553  46.5523 313.5682 15.08845235 61968","EPHEMERIS_TYPE":"0","CLASSIFICATION_TYPE":"U","BSTAR":"0.00043669000000","TLE_LINE1":"1 49730U 21115G   23015.90943953  .00006670  00000-0  43669-3 0  9996","SITE":"AFETR","RA_OF_ASC_NODE":"276.1961","CENTER_NAME":"EARTH","MEAN_ELEMENT_THEORY":"SGP4","NORAD_CAT_ID":"49730","MEAN_ANOMALY":"313.5682","REV_AT_EPOCH":"6196","RCS_SIZE":"LARGE","APOAPSIS":"541.496","EPOCH":"2023-01-15T21:49:35.575392","OBJECT_ID":"2021-115G","FILE":"3748322","TIME_SYSTEM":"UTC","GP_ID":"223149297","PERIAPSIS":"537.963","INCLINATION":"53.2154"},{"EPHEMERIS_TYPE":"0","CLASSIFICATION_TYPE":"U","TLE_LINE2":"2 49731  53.2161 276.2090 0002124  54.2899 305.8291 15.08833871 61960","MEAN_MOTION_DOT":"0.00006308","ARG_OF_PERICENTER":"54.2899","DECAY_DATE":null,"OBJECT_NAME":"STARLINK-3228","LAUNCH_DATE":"2021-12-02","MEAN_MOTION_DDOT":"0.0000000000000","OBJECT_TYPE":"PAYLOAD","ECCENTRICITY":"0.00021240","ELEMENT_SET_NO":"999","MEAN_MOTION":"15.08833871","COUNTRY_CODE":"US","PERIOD":"95.438","SEMIMAJOR_AXIS":"6917.899","REF_FRAME":"TEME","INCLINATION":"53.2161","PERIAPSIS":"538.295","TIME_SYSTEM":"UTC","GP_ID":"223149549","FILE":"3748322","EPOCH":"2023-01-15T21:44:17.768544","APOAPSIS":"541.233","OBJECT_ID":"2021-115H","RCS_SIZE":"LARGE","MEAN_ANOMALY":"305.8291","NORAD_CAT_ID":"49731","REV_AT_EPOCH":"6196","TLE_LINE1":"1 49731U 21115H   23015.90576121  .00006308  00000-0  41417-3 0  9993","RA_OF_ASC_NODE":"276.2090","SITE":"AFETR","MEAN_ELEMENT_THEORY":"SGP4","CENTER_NAME":"EARTH","BSTAR":"0.00041417000000"},{"INCLINATION":"53.2167","PERIAPSIS":"538.432","GP_ID":"223149798","TIME_SYSTEM":"UTC","FILE":"3748322","APOAPSIS":"541.008","OBJECT_ID":"2021-115J","EPOCH":"2023-01-15T22:05:29.304384","RCS_SIZE":"LARGE","REV_AT_EPOCH":"6196","MEAN_ANOMALY":"308.3654","NORAD_CAT_ID":"49732","MEAN_ELEMENT_THEORY":"SGP4","CENTER_NAME":"EARTH","SITE":"AFETR","TLE_LINE1":"1 49732U 21115J   23015.92047806  .00014017  00000-0  89684-3 0  9993","RA_OF_ASC_NODE":"276.1471","BSTAR":"0.00089684000000","CLASSIFICATION_TYPE":"U","EPHEMERIS_TYPE":"0","TLE_LINE2":"2 49732  53.2167 276.1471 0001862  51.7505 308.3654 15.08848360 61963","DECAY_DATE":null,"MEAN_MOTION_DOT":"0.00014017","ARG_OF_PERICENTER":"51.7505","OBJECT_NAME":"STARLINK-3246","LAUNCH_DATE":"2021-12-02","OBJECT_TYPE":"PAYLOAD","MEAN_MOTION_DDOT":"0.0000000000000","ECCENTRICITY":"0.00018620","MEAN_MOTION":"15.08848360","ELEMENT_SET_NO":"999","COUNTRY_CODE":"US","SEMIMAJOR_AXIS":"6917.855","PERIOD":"95.437","REF_FRAME":"TEME"},{"MEAN_MOTION_DDOT":"0.0000000000000","OBJECT_TYPE":"PAYLOAD","ECCENTRICITY":"0.00016440","ELEMENT_SET_NO":"999","MEAN_MOTION":"15.08839724","SEMIMAJOR_AXIS":"6917.881","COUNTRY_CODE":"US","PERIOD":"95.438","REF_FRAME":"TEME","EPHEMERIS_TYPE":"0","CLASSIFICATION_TYPE":"U","TLE_LINE2":"2 49733  53.2169 276.1816 0001644  37.0530 323.0575 15.08839724 61962","ARG_OF_PERICENTER":"37.0530","MEAN_MOTION_DOT":"0.00004358","DECAY_DATE":null,"OBJECT_NAME":"STARLINK-3252","LAUNCH_DATE":"2021-12-02","RCS_SIZE":"LARGE","MEAN_ANOMALY":"323.0575","NORAD_CAT_ID":"49733","REV_AT_EPOCH":"6196","TLE_LINE1":"1 49733U 21115K   23015.91311975  .00004358  00000-0  29176-3 0  9991","SITE":"AFETR","RA_OF_ASC_NODE":"276.1816","MEAN_ELEMENT_THEORY":"SGP4","CENTER_NAME":"EARTH","BSTAR":"0.00029176000000","INCLINATION":"53.2169","PERIAPSIS":"538.609","TIME_SYSTEM":"UTC","GP_ID":"223148549","FILE":"3748322","OBJECT_ID":"2021-115K","APOAPSIS":"540.884","EPOCH":"2023-01-15T21:54:53.546400"},{"GP_ID":"223148799","TIME_SYSTEM":"UTC","PERIAPSIS":"538.306","INCLINATION":"53.2174","APOAPSIS":"541.135","EPOCH":"2023-01-15T22:22:42.952512","OBJECT_ID":"2021-115L","FILE":"3748322","REV_AT_EPOCH":"6211","NORAD_CAT_ID":"49734","MEAN_ANOMALY":"292.8423","RCS_SIZE":"LARGE","BSTAR":"0.00025582000000","CENTER_NAME":"EARTH","MEAN_ELEMENT_THEORY":"SGP4","TLE_LINE1":"1 49734U 21115L   23015.93244158  .00003786  00000-0  25582-3 0  9993","SITE":"AFETR","RA_OF_ASC_NODE":"266.1129","TLE_LINE2":"2 49734  53.2174 266.1129 0002045  67.2785 292.8423 15.08848107 62116","CLASSIFICATION_TYPE":"U","EPHEMERIS_TYPE":"0","LAUNCH_DATE":"2021-12-02","OBJECT_NAME":"STARLINK-3238","DECAY_DATE":null,"ARG_OF_PERICENTER":"67.2785","MEAN_MOTION_DOT":"0.00003786","MEAN_MOTION":"15.08848107","ELEMENT_SET_NO":"999","ECCENTRICITY":"0.00020450","MEAN_MOTION_DDOT":"0.0000000000000","OBJECT_TYPE":"PAYLOAD","REF_FRAME":"TEME","PERIOD":"95.437","COUNTRY_CODE":"US","SEMIMAJOR_AXIS":"6917.856"},{"TLE_LINE2":"2 49735  53.2156 276.1650 0001695  73.4587 286.6591 15.08861157 61965","CLASSIFICATION_TYPE":"U","EPHEMERIS_TYPE":"0","LAUNCH_DATE":"2021-12-02","OBJECT_NAME":"STARLINK-3113","DECAY_DATE":null,"ARG_OF_PERICENTER":"73.4587","MEAN_MOTION_DOT":"0.00042482","MEAN_MOTION":"15.08861157","ELEMENT_SET_NO":"999","ECCENTRICITY":"0.00016950","MEAN_MOTION_DDOT":"0.0000000000000","OBJECT_TYPE":"PAYLOAD","REF_FRAME":"TEME","COUNTRY_CODE":"US","SEMIMAJOR_AXIS":"6917.816","PERIOD":"95.436","GP_ID":"223150049","TIME_SYSTEM":"UTC","PERIAPSIS":"538.508","INCLINATION":"53.2156","EPOCH":"2023-01-15T22:00:11.536416","APOAPSIS":"540.853","OBJECT_ID":"2021-115M","FILE":"3748322","REV_AT_EPOCH":"6196","NORAD_CAT_ID":"49735","MEAN_ANOMALY":"286.6591","RCS_SIZE":"LARGE","BSTAR":"0.00266970000000","CENTER_NAME":"EARTH","MEAN_ELEMENT_THEORY":"SGP4","TLE_LINE1":"1 49735U 21115M   23015.91680019  .00042482  00000-0  26697-2 0  9995","SITE":"AFETR","RA_OF_ASC_NODE":"276.1650"},{"MEAN_ANOMALY":"287.4974","NORAD_CAT_ID":"49736","REV_AT_EPOCH":"6210","RCS_SIZE":"LARGE","BSTAR":"0.00031994000000","RA_OF_ASC_NODE":"266.3617","TLE_LINE1":"1 49736U 21115N   23015.87356003  .00004810  00000-0  31994-3 0  9994","SITE":"AFETR","MEAN_ELEMENT_THEORY":"SGP4","CENTER_NAME":"EARTH","TIME_SYSTEM":"UTC","GP_ID":"223150298","INCLINATION":"53.2139","PERIAPSIS":"538.506","APOAPSIS":"540.865","OBJECT_ID":"2021-115N","EPOCH":"2023-01-15T20:57:55.586592","FILE":"3748322","ELEMENT_SET_NO":"999","MEAN_MOTION":"15.08859559","MEAN_MOTION_DDOT":"0.0000000000000","OBJECT_TYPE":"PAYLOAD","ECCENTRICITY":"0.00017050","REF_FRAME":"TEME","COUNTRY_CODE":"US","SEMIMAJOR_AXIS":"6917.821","PERIOD":"95.436","TLE_LINE2":"2 49736  53.2139 266.3617 0001705  72.6204 287.4974 15.08859559 62104","EPHEMERIS_TYPE":"0","CLASSIFICATION_TYPE":"U","OBJECT_NAME":"STARLINK-3148","LAUNCH_DATE":"2021-12-02","ARG_OF_PERICENTER":"72.6204","MEAN_MOTION_DOT":"0.00004810","DECAY_DATE":null},{"MEAN_MOTION_DDOT":"0.0000000000000","OBJECT_TYPE":"PAYLOAD","ECCENTRICITY":"0.00012160","MEAN_MOTION":"15.08848922","ELEMENT_SET_NO":"999","COUNTRY_CODE":"US","PERIOD":"95.437","SEMIMAJOR_AXIS":"6917.853","REF_FRAME":"TEME","CLASSIFICATION_TYPE":"U","EPHEMERIS_TYPE":"0","TLE_LINE2":"2 49737  53.2144 266.3784 0001216  86.0380 274.0751 15.08848922 62104","DECAY_DATE":null,"ARG_OF_PERICENTER":"86.0380","MEAN_MOTION_DOT":"0.00008615","OBJECT_NAME":"STARLINK-3225","LAUNCH_DATE":"2021-12-02","RCS_SIZE":"LARGE","REV_AT_EPOCH":"6210","MEAN_ANOMALY":"274.0751","NORAD_CAT_ID":"49737","MEAN_ELEMENT_THEORY":"SGP4","CENTER_NAME":"EARTH","TLE_LINE1":"1 49737U 21115P   23015.86988145  .00008615  00000-0  55857-3 0  9993","SITE":"AFETR","RA_OF_ASC_NODE":"266.3784","BSTAR":"0.00055857000000","INCLINATION":"53.2144","PERIAPSIS":"538.877","GP_ID":"223149049","TIME_SYSTEM":"UTC","FILE":"3748322","APOAPSIS":"540.559","OBJECT_ID":"2021-115P","EPOCH":"2023-01-15T20:52:37.757280"},{"APOAPSIS":"540.918","EPOCH":"2023-01-15T22:38:36.689280","OBJECT_ID":"2021-115Q","FILE":"3748322","TIME_SYSTEM":"UTC","GP_ID":"223149298","INCLINATION":"53.2152","PERIAPSIS":"538.527","BSTAR":"0.00034426000000","TLE_LINE1":"1 49738U 21115Q   23015.94348020  .00005196  00000-0  34426-3 0  9995","RA_OF_ASC_NODE":"266.0405","SITE":"AFETR","MEAN_ELEMENT_THEORY":"SGP4","CENTER_NAME":"EARTH","MEAN_ANOMALY":"296.8280","NORAD_CAT_ID":"49738","REV_AT_EPOCH":"6211","RCS_SIZE":"LARGE","OBJECT_NAME":"STARLINK-3143","LAUNCH_DATE":"2021-12-02","ARG_OF_PERICENTER":"63.2889","MEAN_MOTION_DOT":"0.00005196","DECAY_DATE":null,"TLE_LINE2":"2 49738  53.2152 266.0405 0001728  63.2889 296.8280 15.08847543 62118","EPHEMERIS_TYPE":"0","CLASSIFICATION_TYPE":"U","REF_FRAME":"TEME","COUNTRY_CODE":"US","PERIOD":"95.437","SEMIMAJOR_AXIS":"6917.857","ELEMENT_SET_NO":"999","MEAN_MOTION":"15.08847543","MEAN_MOTION_DDOT":"0.0000000000000","OBJECT_TYPE":"PAYLOAD","ECCENTRICITY":"0.00017280"}];
